{
    "links": {
        "self": "http://www.neowsapp.com/rest/v1/neo/3879141?api_key=iIulBulltgU6a56xZRHN4H3l9WmuAYTsLGpBGhQ2"
    },
    "id": "3879141",
    "neo_reference_id": "3879141",
    "name": "(2019 TQ6)",
    "designation": "2019 TQ6",
    "nasa_jpl_url": "http://ssd.jpl.nasa.gov/sbdb.cgi?sstr=3879141",
    "absolute_magnitude_h": 23.4,
    "estimated_diameter": {
        "kilometers": {
            "estimated_diameter_min": 0.0555334912,
            "estimated_diameter_max": 0.1241766613
        },
        "meters": {
            "estimated_diameter_min": 55.5334911581,
            "estimated_diameter_max": 124.1766612574
        },
        "miles": {
            "estimated_diameter_min": 0.0345069009,
            "estimated_diameter_max": 0.0771597762
        },
        "feet": {
            "estimated_diameter_min": 182.1964991311,
            "estimated_diameter_max": 407.4037573197
        }
    },
    "is_potentially_hazardous_asteroid": false,
    "close_approach_data": [
        {
            "close_approach_date": "2019-10-21",
            "close_approach_date_full": "2019-Oct-21 00:03",
            "epoch_date_close_approach": 1571616180000,
            "relative_velocity": {
                "kilometers_per_second": "14.8388938882",
                "kilometers_per_hour": "53420.0179974268",
                "miles_per_hour": "33193.1217384566"
            },
            "miss_distance": {
                "astronomical": "0.1612298317",
                "lunar": "62.7184045313",
                "kilometers": "24119639.402778479",
                "miles": "14987248.9569178502"
            },
            "orbiting_body": "Earth"
        }
    ],
    "orbital_data": {
        "orbit_id": "1",
        "orbit_determination_date": "2019-10-10 14:12:04",
        "first_observation_date": "2019-10-08",
        "last_observation_date": "2019-10-10",
        "data_arc_in_days": 2,
        "observations_used": 13,
        "orbit_uncertainty": "9",
        "minimum_orbit_intersection": ".139692",
        "jupiter_tisserand_invariant": "3.479",
        "epoch_osculation": "2458765.5",
        "eccentricity": ".5152139332533893",
        "semi_major_axis": "2.123243722680285",
        "inclination": "20.1356076034926",
        "ascending_node_longitude": "18.60441623049458",
        "orbital_period": "1130.051406161228",
        "perihelion_distance": "1.029318973062607",
        "perihelion_argument": "50.73395193661484",
        "aphelion_distance": "3.217168472297963",
        "perihelion_time": "2458810.948419267126",
        "mean_anomaly": "345.5215162363764",
        "mean_motion": ".3185695783724707",
        "equinox": "J2000",
        "orbit_class": {
            "orbit_class_type": "AMO",
            "orbit_class_description": "Near-Earth asteroid orbits similar to that of 1221 Amor",
            "orbit_class_range": "1.017 AU < q (perihelion) < 1.3 AU"
        }
    },
    "is_sentry_object": false
}